ONEWEB-0126             
1 47272U 20100Q   23286.76227954 -.00000175  00000+0 -52240-3 0  9998
2 47272  87.8999 184.9970 0001603  69.4516 290.6785 13.12446438136499
ONEWEB-0127             
1 47273U 20100R   23286.72522768  .00000346  00000+0  92609-3 0  9997
2 47273  87.9068 185.0171 0001637  72.7972 287.3336 13.12441359136518
ONEWEB-0128             
1 47274U 20100S   23286.74639873 -.00000396  00000+0 -11367-2 0  9994
2 47274  87.9077 184.9999 0001822  60.5948 299.5362 13.12443743136534
ONEWEB-0129             
1 47275U 20100T   23286.72734101  .00000226  00000+0  59170-3 0  9998
2 47275  87.9019 185.0255 0000113   5.3933 354.7197 13.12443945136467
ONEWEB-0130             
1 47276U 20100U   23286.75274255 -.00000394  00000+0 -11317-2 0  9999
2 47276  87.9002 185.0066 0001789  71.8163 288.3161 13.12441851136437
ONEWEB-0131             
1 47277U 20100V   23286.75062755 -.00001170  00000+0 -32887-2 0  9998
2 47277  87.9083 184.9917 0002093  70.1730 289.9624 13.12444670136478
ONEWEB-0132             
1 47278U 20100W   23286.78028325  .00000404  00000+0  10864-2 0  9995
2 47278  87.9083 184.9887 0002031  76.5852 283.5503 13.12445717136370
ONEWEB-0133             
1 47279U 20100X   23286.79722872  .00000455  00000+0  12285-2 0  9990
2 47279  87.9069 185.0076 0001836  71.3079 288.8248 13.12442211136531
